[
    {
        "Altitude(m)": 556178.5847566717,
        "Argument of Periapsis(deg)": 0.026491964442854003,
        "Eccentricity": 0.0,
        "Inclination(deg)": 53.0,
        "Latitude(deg)": 36.300376477419846,
        "Longitude(deg)": 115.21837762690397,
        "Mean Anomaly(deg)": 47.639171470310345,
        "RAAN(deg)": 184.96057347411204,
        "Satellite Name": "Starlink Shell 1 814",
        "Satellite Number": 814,
        "Semi-Major Axis(m)": 6931778.249405717,
        "Time(s)": 760
    },
    {
        "Altitude(m)": 556261.5680606215,
        "Argument of Periapsis(deg)": 0.02684054292236524,
        "Eccentricity": 0.0,
        "Inclination(deg)": 53.0,
        "Latitude(deg)": 36.71830601661979,
        "Longitude(deg)": 115.75879625902436,
        "Mean Anomaly(deg)": 48.266002673867064,
        "RAAN(deg)": 184.96005470403458,
        "Satellite Name": "Starlink Shell 1 814",
        "Satellite Number": 814,
        "Semi-Major Axis(m)": 6931778.249405717,
        "Time(s)": 770
    },
    {
        "Altitude(m)": 556344.7637060866,
        "Argument of Periapsis(deg)": 0.027189121401876473,
        "Eccentricity": 0.0,
        "Inclination(deg)": 53.0,
        "Latitude(deg)": 37.133332615582084,
        "Longitude(deg)": 116.30552273975404,
        "Mean Anomaly(deg)": 48.89283387742379,
        "RAAN(deg)": 184.9595359339571,
        "Satellite Name": "Starlink Shell 1 814",
        "Satellite Number": 814,
        "Semi-Major Axis(m)": 6931778.249405717,
        "Time(s)": 780
    },
    {
        "Altitude(m)": 556428.1161973164,
        "Argument of Periapsis(deg)": 0.02753769988138771,
        "Eccentricity": 0.0,
        "Inclination(deg)": 53.0,
        "Latitude(deg)": 37.54538145507394,
        "Longitude(deg)": 116.85867758641913,
        "Mean Anomaly(deg)": 49.51966508098054,
        "RAAN(deg)": 184.95901716387962,
        "Satellite Name": "Starlink Shell 1 814",
        "Satellite Number": 814,
        "Semi-Major Axis(m)": 6931778.249405717,
        "Time(s)": 790
    },
    {
        "Altitude(m)": 556511.5701686466,
        "Argument of Periapsis(deg)": 0.02788627836089895,
        "Eccentricity": 0.0,
        "Inclination(deg)": 53.0,
        "Latitude(deg)": 37.9543760269938,
        "Longitude(deg)": 117.4183810175236,
        "Mean Anomaly(deg)": 50.14649628453721,
        "RAAN(deg)": 184.9584983938022,
        "Satellite Name": "Starlink Shell 1 814",
        "Satellite Number": 814,
        "Semi-Major Axis(m)": 6931778.249405717,
        "Time(s)": 800
    },
    {
        "Altitude(m)": 556595.0704128656,
        "Argument of Periapsis(deg)": 0.02823485684041019,
        "Eccentricity": 0.0,
        "Inclination(deg)": 53.0,
        "Latitude(deg)": 38.36023810767002,
        "Longitude(deg)": 117.9847533116493,
        "Mean Anomaly(deg)": 50.773327488093926,
        "RAAN(deg)": 184.95797962372473,
        "Satellite Name": "Starlink Shell 1 814",
        "Satellite Number": 814,
        "Semi-Major Axis(m)": 6931778.249405717,
        "Time(s)": 810
    },
    {
        "Altitude(m)": 556678.5619094446,
        "Argument of Periapsis(deg)": 0.028583435319921423,
        "Eccentricity": 0.0,
        "Inclination(deg)": 53.0,
        "Latitude(deg)": 38.76288773264245,
        "Longitude(deg)": 118.55791515382931,
        "Mean Anomaly(deg)": 51.400158691650624,
        "RAAN(deg)": 184.95746085364723,
        "Satellite Name": "Starlink Shell 1 814",
        "Satellite Number": 814,
        "Semi-Major Axis(m)": 6931778.249405717,
        "Time(s)": 820
    },
    {
        "Altitude(m)": 556761.9898526488,
        "Argument of Periapsis(deg)": 0.028932013799432665,
        "Eccentricity": 0.0,
        "Inclination(deg)": 53.0,
        "Latitude(deg)": 39.162243173137014,
        "Longitude(deg)": 119.13798645590416,
        "Mean Anomaly(deg)": 52.026989895207336,
        "RAAN(deg)": 184.95694208356977,
        "Satellite Name": "Starlink Shell 1 814",
        "Satellite Number": 814,
        "Semi-Major Axis(m)": 6931778.249405717,
        "Time(s)": 830
    },
    {
        "Altitude(m)": 556845.2996794903,
        "Argument of Periapsis(deg)": 0.029280592278943897,
        "Eccentricity": 0.0,
        "Inclination(deg)": 53.0,
        "Latitude(deg)": 39.558220914454225,
        "Longitude(deg)": 119.72508667599621,
        "Mean Anomaly(deg)": 52.653821098764105,
        "RAAN(deg)": 184.95642331349228,
        "Satellite Name": "Starlink Shell 1 814",
        "Satellite Number": 814,
        "Semi-Major Axis(m)": 6931778.249405717,
        "Time(s)": 840
    },
    {
        "Altitude(m)": 556928.4370975035,
        "Argument of Periapsis(deg)": 0.029629170758455132,
        "Eccentricity": 0.0,
        "Inclination(deg)": 53.0,
        "Latitude(deg)": 39.95073563651076,
        "Longitude(deg)": 120.3193351236156,
        "Mean Anomaly(deg)": 53.28065230232075,
        "RAAN(deg)": 184.95590454341482,
        "Satellite Name": "Starlink Shell 1 814",
        "Satellite Number": 814,
        "Semi-Major Axis(m)": 6931778.249405717,
        "Time(s)": 850
    },
    {
        "Altitude(m)": 557011.3481123726,
        "Argument of Periapsis(deg)": 0.02997774923796637,
        "Eccentricity": 0.0,
        "Inclination(deg)": 53.0,
        "Latitude(deg)": 40.33970019678972,
        "Longitude(deg)": 120.92084956882682,
        "Mean Anomaly(deg)": 53.907483505877536,
        "RAAN(deg)": 184.95538577333733,
        "Satellite Name": "Starlink Shell 1 814",
        "Satellite Number": 814,
        "Semi-Major Axis(m)": 6931778.249405717,
        "Time(s)": 860
    },
    {
        "Altitude(m)": 557093.9790553495,
        "Argument of Periapsis(deg)": 0.030326327717477602,
        "Eccentricity": 0.0,
        "Inclination(deg)": 53.0,
        "Latitude(deg)": 40.72502561596552,
        "Longitude(deg)": 121.52974735732026,
        "Mean Anomaly(deg)": 54.5343147094342,
        "RAAN(deg)": 184.95486700325986,
        "Satellite Name": "Starlink Shell 1 814",
        "Satellite Number": 814,
        "Semi-Major Axis(m)": 6931778.249405717,
        "Time(s)": 870
    },
    {
        "Altitude(m)": 557176.2766104767,
        "Argument of Periapsis(deg)": 0.030674906196988847,
        "Eccentricity": 0.0,
        "Inclination(deg)": 53.0,
        "Latitude(deg)": 41.1066210664941,
        "Longitude(deg)": 122.14614398791211,
        "Mean Anomaly(deg)": 55.161145912990946,
        "RAAN(deg)": 184.95434823318237,
        "Satellite Name": "Starlink Shell 1 814",
        "Satellite Number": 814,
        "Semi-Major Axis(m)": 6931778.249405717,
        "Time(s)": 880
    },
    {
        "Altitude(m)": 557258.1878415813,
        "Argument of Periapsis(deg)": 0.031023484676500086,
        "Eccentricity": 0.0,
        "Inclination(deg)": 53.0,
        "Latitude(deg)": 41.48439386446612,
        "Longitude(deg)": 122.77015335437203,
        "Mean Anomaly(deg)": 55.787977116547665,
        "RAAN(deg)": 184.9538294631049,
        "Satellite Name": "Starlink Shell 1 814",
        "Satellite Number": 814,
        "Semi-Major Axis(m)": 6931778.249405717,
        "Time(s)": 890
    },
    {
        "Altitude(m)": 557339.6602190778,
        "Argument of Periapsis(deg)": 0.03137206315601132,
        "Eccentricity": 0.0,
        "Inclination(deg)": 53.0,
        "Latitude(deg)": 41.85824946504321,
        "Longitude(deg)": 123.40188797011392,
        "Mean Anomaly(deg)": 56.414808320104335,
        "RAAN(deg)": 184.95331069302745,
        "Satellite Name": "Starlink Shell 1 814",
        "Satellite Number": 814,
        "Semi-Major Axis(m)": 6931778.249405717,
        "Time(s)": 900
    },
    {
        "Altitude(m)": 557420.6416464736,
        "Argument of Periapsis(deg)": 0.03172064163552255,
        "Eccentricity": 0.0,
        "Inclination(deg)": 53.0,
        "Latitude(deg)": 42.228091461811765,
        "Longitude(deg)": 124.04145766243018,
        "Mean Anomaly(deg)": 57.04163952366108,
        "RAAN(deg)": 184.95279192294996,
        "Satellite Name": "Starlink Shell 1 814",
        "Satellite Number": 814,
        "Semi-Major Axis(m)": 6931778.249405717,
        "Time(s)": 910
    },
    {
        "Altitude(m)": 557501.0804866824,
        "Argument of Periapsis(deg)": 0.0320692201150338,
        "Eccentricity": 0.0,
        "Inclination(deg)": 53.0,
        "Latitude(deg)": 42.593821590401525,
        "Longitude(deg)": 124.68896976163477,
        "Mean Anomaly(deg)": 57.66847072721775,
        "RAAN(deg)": 184.95227315287252,
        "Satellite Name": "Starlink Shell 1 814",
        "Satellite Number": 814,
        "Semi-Major Axis(m)": 6931778.249405717,
        "Time(s)": 920
    },
    {
        "Altitude(m)": 557580.9255880314,
        "Argument of Periapsis(deg)": 0.032417798594545036,
        "Eccentricity": 0.0,
        "Inclination(deg)": 53.0,
        "Latitude(deg)": 42.95533973673382,
        "Longitude(deg)": 125.34452927192105,
        "Mean Anomaly(deg)": 58.29530193077453,
        "RAAN(deg)": 184.95175438279506,
        "Satellite Name": "Starlink Shell 1 814",
        "Satellite Number": 814,
        "Semi-Major Axis(m)": 6931778.249405717,
        "Time(s)": 930
    },
    {
        "Altitude(m)": 557660.1263100113,
        "Argument of Periapsis(deg)": 0.03276637707405627,
        "Eccentricity": 0.0,
        "Inclination(deg)": 53.0,
        "Latitude(deg)": 43.3125439502786,
        "Longitude(deg)": 126.00823751082378,
        "Mean Anomaly(deg)": 58.92213313433122,
        "RAAN(deg)": 184.95123561271757,
        "Satellite Name": "Starlink Shell 1 814",
        "Satellite Number": 814,
        "Semi-Major Axis(m)": 6931778.249405717,
        "Time(s)": 940
    }
]